[{"OBJECT_NAME":"STARLINK-5951","OBJECT_ID":"2023-083AU","EPOCH":"2026-03-09T22:00:01.999584","MEAN_MOTION":15.07846545,"ECCENTRICITY":0.0001419,"INCLINATION":42.9996,"RA_OF_ASC_NODE":67.3957,"ARG_OF_PERICENTER":293.741,"MEAN_ANOMALY":156.9894,"EPHEMERIS_TYPE":0,"CLASSIFICATION_TYPE":"U","NORAD_CAT_ID":56918,"ELEMENT_SET_NO":999,"REV_AT_EPOCH":563,"BSTAR":0.0042213155,"MEAN_MOTION_DOT":0.00066181,"MEAN_MOTION_DDOT":0},{"OBJECT_NAME":"COSMOS 1275 DEB","OBJECT_ID":"1981-053RH","EPOCH":"2026-03-08T19:02:02.535360","MEAN_MOTION":15.08606043,"ECCENTRICITY":0.00097404,"INCLINATION":83.3308,"RA_OF_ASC_NODE":196.5935,"ARG_OF_PERICENTER":282.896,"MEAN_ANOMALY":77.1182,"EPHEMERIS_TYPE":0,"CLASSIFICATION_TYPE":"U","NORAD_CAT_ID":42145,"ELEMENT_SET_NO":999,"REV_AT_EPOCH":64889,"BSTAR":0.0090120528,"MEAN_MOTION_DOT":0.00143721,"MEAN_MOTION_DDOT":0}]
